NORAD_CAT_ID,OBJECT_NAME,OBJECT_TYPE,EPOCH,MEAN_MOTION,ECCENTRICITY,INCLINATION,RA_OF_ASC_NODE,ARG_OF_PERICENTER,MEAN_ANOMALY,BSTAR,MEAN_MOTION_DOT,MEAN_MOTION_DDOT,TLE_LINE0,TLE_LINE1,TLE_LINE2,SEMIMAJOR_AXIS,PERIOD,APOGEE,PERIGEE,DECAYED
53012.0,STARLINK-4271,PAYLOAD,2022-12-13 07:55:00,15.08837685,0.0002387,53.2206,1.9433,31.2077,328.9057,7.5568e-05,9.14e-06,0.0,0 STARLINK-4271,1 53012U 22076AC  22347.32986184  .00000914  00000-0  75568-4 0  9996,2 53012  53.2206   1.9433 0002387  31.2077 328.9057 15.08837685 24822,6917.887,95.438,541.404,538.101,0.0
53012.0,STARLINK-4271,PAYLOAD,2022-12-13 11:05:46,15.08837999,0.0002365,53.2207,1.3485,31.1491,328.9641,6.9848e-05,8.23e-06,0.0,0 STARLINK-4271,1 53012U 22076AC  22347.46234155  .00000823  00000-0  69848-4 0  9998,2 53012  53.2207   1.3485 0002365  31.1491 328.9641 15.08837999 24376,6917.887,95.438,541.388,538.115,0.0
53012.0,STARLINK-4271,PAYLOAD,2022-12-14 06:10:23,15.08847705,0.0002437,53.2204,357.7805,30.8053,329.3082,2.224e-06,-2.53e-06,0.0,0 STARLINK-4271,1 53012U 22076AC  22348.25721698 -.00000253  00000-0  22240-5 0  9993,2 53012  53.2204 357.7805 0002437  30.8053 329.3082 15.08847705 24962,6917.857,95.437,541.408,538.036,0.0
53012.0,STARLINK-4271,PAYLOAD,2022-12-14 17:18:05,15.08841224,0.0002469,53.22,355.6992,31.1743,328.9395,-2.5537e-05,-6.95e-06,0.0,0 STARLINK-4271,1 53012U 22076AC  22348.72090087 -.00000695  00000-0 -25537-4 0  9998,2 53012  53.2200 355.6992 0002469  31.1743 328.9395 15.08841224 24565,6917.877,95.437,541.45,538.034,0.0
53012.0,STARLINK-4271,PAYLOAD,2022-12-15 10:47:20,15.0884036,0.0002463,53.2197,352.4276,27.2298,332.8823,5.5288e-05,5.92e-06,0.0,0 STARLINK-4271,1 53012U 22076AC  22349.44953801  .00000592  00000-0  55288-4 0  9990,2 53012  53.2197 352.4276 0002463  27.2298 332.8823 15.08840360 24677,6917.879,95.438,541.448,538.04,0.0
53012.0,STARLINK-4271,PAYLOAD,2022-12-15 17:08:52,15.08837737,0.0002474,53.2207,351.2379,31.9955,328.1187,1.3658e-05,-7.1e-07,0.0,0 STARLINK-4271,1 53012U 22076AC  22349.71450089 -.00000071  00000-0  13658-4 0  9998,2 53012  53.2207 351.2379 0002474  31.9955 328.1187 15.08837737 24714,6917.887,95.438,541.464,538.0409999999998,0.0
53012.0,STARLINK-4271,PAYLOAD,2022-12-15 23:30:25,15.08839333,0.0002371,53.2211,350.0485,34.7715,325.3432,1.791e-05,-3e-08,0.0,0 STARLINK-4271,1 53012U 22076AC  22349.97945966 -.00000003  00000-0  17910-4 0  9999,2 53012  53.2211 350.0485 0002371  34.7715 325.3432 15.08839333 25228,6917.882,95.438,541.388,538.107,0.0
53012.0,STARLINK-4271,PAYLOAD,2022-12-16 05:51:57,15.08846914,0.0002437,53.2208,348.8594,35.2667,324.8486,4.6734e-05,4.56e-06,0.0,0 STARLINK-4271,1 53012U 22076AC  22350.24441390  .00000456  00000-0  46734-4 0  9990,2 53012  53.2208 348.8594 0002437  35.2667 324.8486 15.08846914 25265,6917.859,95.437,541.41,538.038,0.0
53012.0,STARLINK-4271,PAYLOAD,2022-12-16 09:02:43,15.08845606,0.0002518,53.2198,348.2657,29.8853,330.2283,3.8952e-05,3.32e-06,0.0,0 STARLINK-4271,1 53012U 22076AC  22350.37689451  .00000332  00000-0  38952-4 0  9992,2 53012  53.2198 348.2657 0002518  29.8853 330.2283 15.08845606 24816,6917.863,95.437,541.47,537.986,0.0
53012.0,STARLINK-4271,PAYLOAD,2022-12-16 16:59:39,15.08840383,0.0002439,53.2191,346.7782,27.9427,332.1695,4.5036e-05,4.28e-06,0.0,0 STARLINK-4271,1 53012U 22076AC  22350.70809654  .00000428  00000-0  45036-4 0  9995,2 53012  53.2191 346.7782 0002439  27.9427 332.1695 15.08840383 25332,6917.879,95.438,541.431,538.057,0.0
53012.0,STARLINK-4271,PAYLOAD,2022-12-17 08:53:31,15.08836918,0.0002463,53.2204,343.8041,29.5719,330.5413,-1.5436e-06,-3.13e-06,0.0,0 STARLINK-4271,1 53012U 22076AC  22351.37049993 -.00000313  00000-0 -15436-5 0  9998,2 53012  53.2204 343.8041 0002463  29.5719 330.5413 15.08836918 24969,6917.89,95.438,541.4590000000002,538.0509999999998,0.0
53012.0,STARLINK-4271,PAYLOAD,2022-12-17 16:50:26,15.08836965,0.0002531,53.2205,342.3172,30.4599,329.654,-3.8594e-06,-3.5000000000000016e-06,0.0,0 STARLINK-4271,1 53012U 22076AC  22351.70170066 -.00000350  00000-0 -38594-5 0  9992,2 53012  53.2205 342.3172 0002531  30.4599 329.6540 15.08836965 25011,6917.89,95.438,541.506,538.004,0.0
53012.0,STARLINK-4271,PAYLOAD,2022-12-18 03:58:09,15.08835865,0.0002898,53.2212,340.2372,32.8981,327.2191,-1.701e-05,-5.59e-06,0.0,0 STARLINK-4271,1 53012U 22076AC  22352.16538516 -.00000559  00000-0 -17010-4 0  9991,2 53012  53.2212 340.2372 0002898  32.8981 327.2191 15.08835865 25558,6917.893,95.438,541.763,537.753,0.0
53012.0,STARLINK-4271,PAYLOAD,2022-12-18 07:08:55,15.08841067,0.0002959,53.2215,339.6426,28.5474,331.5680000000001,1.3912e-06,-2.67e-06,0.0,0 STARLINK-4271,1 53012U 22076AC  22352.29786160 -.00000267  00000-0  13912-5 0  9998,2 53012  53.2215 339.6426 0002959  28.5474 331.5680 15.08841067 25103,6917.877,95.437,541.789,537.695,0.0
53012.0,STARLINK-4271,PAYLOAD,2022-12-18 16:41:13,15.0884033,0.00024,53.221,337.8586,37.4399,322.676,3.5381e-05,2.75e-06,0.0,0 STARLINK-4271,1 53012U 22076AC  22352.69529990  .00000275  00000-0  35381-4 0  9999,2 53012  53.2210 337.8586 0002400  37.4399 322.6760 15.08840330 25169,6917.879,95.438,541.405,538.0840000000002,0.0
53012.0,STARLINK-4271,PAYLOAD,2022-12-19 03:48:55,15.08845834,0.0002852,53.2214,335.7785,36.9346,323.1842,7.5782e-07,-2.77e-06,0.0,0 STARLINK-4271,1 53012U 22076AC  22353.15897901 -.00000277  00000-0  75782-6 0  9995,2 53012  53.2214 335.7785 0002852  36.9346 323.1842 15.08845834 25709,6917.863,95.437,541.701,537.755,0.0
53012.0,STARLINK-4271,PAYLOAD,2022-12-19 08:35:05,15.08835559,0.0002851,53.2221,334.8866,29.0541,331.0609,6.3832e-05,7.27e-06,0.0,0 STARLINK-4271,1 53012U 22076AC  22353.35770387  .00000727  00000-0  63832-4 0  9995,2 53012  53.2221 334.8866 0002851  29.0541 331.0609 15.08835559 25731,6917.894,95.438,541.731,537.7869999999998,0.0
53012.0,STARLINK-4271,PAYLOAD,2022-12-19 16:32:01,15.08836347,0.0002648,53.2213,333.3985,29.2523,330.8617,5.1428e-05,5.3e-06,0.0,0 STARLINK-4271,1 53012U 22076AC  22353.68890338  .00000530  00000-0  51428-4 0  9990,2 53012  53.2213 333.3985 0002648  29.2523 330.8617 15.08836347 25310,6917.892,95.438,541.5880000000002,537.925,0.0
53012.0,STARLINK-4271,PAYLOAD,2022-12-20 10:01:14,15.0884937,0.000245,53.2207,330.1281,28.0315,332.0808,0.00017715,2.533e-05,0.0,0 STARLINK-4271,1 53012U 22076AC  22354.41752863  .00002533  00000-0  17715-3 0  9997,2 53012  53.2207 330.1281 0002450  28.0315 332.0808 15.08849370 25422,6917.852,95.437,541.4119999999998,538.0219999999998,0.0
53012.0,STARLINK-4271,PAYLOAD,2022-12-21 05:05:53,15.08830142,0.0002419,53.2209,326.5608,25.2277,334.8833,-4.6003e-05,-1.02e-05,0.0,0 STARLINK-4271,1 53012U 22076AC  22355.21242695 -.00001020  00000-0 -46003-4 0  9998,2 53012  53.2209 326.5608 0002419  25.2277 334.8833 15.08830142 26018,6917.911,95.438,541.4490000000002,538.102,0.0
53012.0,STARLINK-4271,PAYLOAD,2022-12-21 08:16:40,15.08827172,0.000244,53.2206,325.9641,26.8218,333.29,-5.8265e-05,-1.215e-05,0.0,0 STARLINK-4271,1 53012U 22076AC  22355.34490941 -.00001215  00000-0 -58265-4 0  9990,2 53012  53.2206 325.9641 0002440  26.8218 333.2900 15.08827172 25567,6917.92,95.438,541.4730000000002,538.097,0.0
53012.0,STARLINK-4271,PAYLOAD,2022-12-22 04:56:40,15.08842994,0.0002497,53.2204,322.0996,27.9329,332.1797,-2.6126e-05,-7.04e-06,0.0,0 STARLINK-4271,1 53012U 22076AC  22356.20602244 -.00000704  00000-0 -26126-4 0  9990,2 53012  53.2204 322.0996 0002497  27.9329 332.1797 15.08842994 26161,6917.871,95.437,541.464,538.009,0.0
53012.0,STARLINK-4271,PAYLOAD,2022-12-22 08:07:26,15.08844905,0.0002503,53.2201,321.5049,28.411,331.7019,-1.1399e-05,-4.7e-06,0.0,0 STARLINK-4271,1 53012U 22076AC  22356.33850075 -.00000470  00000-0 -11399-4 0  9997,2 53012  53.2201 321.5049 0002503  28.4110 331.7019 15.08844905 25719,6917.865,95.437,541.462,537.999,0.0
53012.0,STARLINK-4271,PAYLOAD,2022-12-22 14:29:00,15.08828862,0.0002705,53.2213,320.3135,36.4986,323.619,-0.00012996,-2.356e-05,0.0,0 STARLINK-4271,1 53012U 22076AC  22356.60347633 -.00002356  00000-0 -12996-3 0  9996,2 53012  53.2213 320.3135 0002705  36.4986 323.6190 15.08828862 25757,6917.9140000000025,95.438,541.651,537.908,0.0
53012.0,STARLINK-4271,PAYLOAD,2022-12-22 22:25:56,15.08821676,0.0002131,53.2202,318.8266,35.7305,324.3829,-3.946300000000001e-05,-9.16e-06,0.0,0 STARLINK-4271,1 53012U 22076AC  22356.93467998 -.00000916  00000-0 -39463-4 0  9998,2 53012  53.2202 318.8266 0002131  35.7305 324.3829 15.08821676 26273,6917.936,95.439,541.276,538.327,0.0
53012.0,STARLINK-4271,PAYLOAD,2022-12-23 04:47:28,15.0882761,0.0002177,53.2206,317.6438,40.9856,319.1299,0.0001315,1.805e-05,0.0,0 STARLINK-4271,1 53012U 22076AC  22357.19963321  .00001805  00000-0  13150-3 0  9998,2 53012  53.2206 317.6438 0002177  40.9856 319.1299 15.08827610 26316,6917.918000000002,95.438,541.289,538.2769999999998,0.0
53012.0,STARLINK-4271,PAYLOAD,2022-12-23 06:22:51,15.08833719,0.000235,53.2192,317.3419,32.134,327.9795,0.00017105,2.435e-05,0.0,0 STARLINK-4271,1 53012U 22076AC  22357.26586814  .00002435  00000-0  17105-3 0  9998,2 53012  53.2192 317.3419 0002350  32.1340 327.9795 15.08833719 25853,6917.9,95.438,541.39,538.139,0.0
53012.0,STARLINK-4271,PAYLOAD,2022-12-23 14:19:46,15.08842496,0.0002385,53.2196,315.8555,34.4912,325.6235,0.00022195,3.246e-05,0.0,0 STARLINK-4271,1 53012U 22076AC  22357.59706207  .00003246  00000-0  22195-3 0  9990,2 53012  53.2196 315.8555 0002385  34.4912 325.6235 15.08842496 26373,6917.873000000001,95.437,541.388,538.0880000000002,0.0
53012.0,STARLINK-4271,PAYLOAD,2022-12-23 20:41:19,15.08840296,0.0002412,53.2193,314.6664,36.4627,323.653,0.00018877,2.717e-05,0.0,0 STARLINK-4271,1 53012U 22076AC  22357.86202555  .00002717  00000-0  18877-3 0  9991,2 53012  53.2193 314.6664 0002412  36.4627 323.6530 15.08840296 25948,6917.879,95.438,541.413,538.076,0.0
